[
    {
        "Altitude(m)": 612502.2135818215,
        "Argument of Periapsis(deg)": 0.0,
        "Eccentricity": 0.0,
        "Inclination(deg)": 60.0,
        "Latitude(deg)": -28.136034536015263,
        "Longitude(deg)": 17.14830261006895,
        "Mean Anomaly(deg)": -32.72730000000001,
        "RAAN(deg)": 135.0,
        "Satellite Name": "Test1 614",
        "Satellite Number": 614,
        "Semi-Major Axis(m)": 6980739.136638005,
        "Time(s)": 0
    },
    {
        "Altitude(m)": 612308.6610502747,
        "Argument of Periapsis(deg)": 0.00010418945913296404,
        "Eccentricity": 0.0,
        "Inclination(deg)": 60.0,
        "Latitude(deg)": -27.623089225390316,
        "Longitude(deg)": 17.501775814171218,
        "Mean Anomaly(deg)": -32.10719385453816,
        "RAAN(deg)": 134.99957995086024,
        "Satellite Name": "Test1 614",
        "Satellite Number": 614,
        "Semi-Major Axis(m)": 6980739.136638005,
        "Time(s)": 10
    }
]